{"type":"FeatureCollection","generator":"JOSM","features":[
{"type":"Feature","properties":{"foot":"yes","name":"V7","highway":"footway","layer":"-2","tunnel":"yes"},"geometry":{"type":"LineString","coordinates":[[6.13288,45.9375],[6.13285,45.9375]]}},
{"type":"Feature","properties":{"foot":"yes","name":"V19","highway":"footway","layer":"-2","tunnel":"yes"},"geometry":{"type":"LineString","coordinates":[[6.13224,45.93712],[6.13218,45.93713]]}},
{"type":"Feature","properties":{"foot":"yes","name":"R2 STS Bâtiment","highway":"footway","layer":"-2","tunnel":"yes"},"geometry":{"type":"LineString","coordinates":[[6.13258,45.93754],[6.13265,45.93753]]}},
{"type":"Feature","properties":{"foot":"yes","name":"V3","highway":"footway","layer":"-2","tunnel":"yes"},"geometry":{"type":"LineString","coordinates":[[6.13275,45.93766],[6.13266,45.93767]]}},
{"type":"Feature","properties":{"foot":"yes","name":"V10","highway":"footway","layer":"-2","tunnel":"yes"},"geometry":{"type":"LineString","coordinates":[[6.13272,45.93744],[6.13264,45.93745]]}},
{"type":"Feature","properties":{"foot":"yes","name":"Adjoint","highway":"footway","layer":"-2","tunnel":"yes"},"geometry":{"type":"LineString","coordinates":[[6.13208,45.93733],[6.13215,45.93735]]}},
{"type":"Feature","properties":{"foot":"yes","name":"R11","highway":"footway","layer":"-2","tunnel":"yes"},"geometry":{"type":"LineString","coordinates":[[6.13238,45.93681],[6.13238,45.93679]]}},
{"type":"Feature","properties":{"foot":"yes","name":"R1 STS Bâtiment","highway":"footway","layer":"-2","tunnel":"yes"},"geometry":{"type":"LineString","coordinates":[[6.1326,45.93768],[6.13267,45.93768]]}},
{"type":"Feature","properties":{"foot":"yes","name":"VDI0","highway":"footway","layer":"-2","tunnel":"yes"},"geometry":{"type":"LineString","coordinates":[[6.1327,45.93733],[6.13263,45.93734]]}},
{"type":"Feature","properties":{"layer":"-2","highway":"footway","tunnel":"yes","name":"V11","foot":"yes"},"geometry":{"type":"LineString","coordinates":[[6.13272,45.93736],[6.13263,45.93736]]}},
{"type":"Feature","properties":{"foot":"yes","name":"R6","highway":"footway","layer":"-2","tunnel":"yes"},"geometry":{"type":"LineString","coordinates":[[6.13206,45.93689],[6.13215,45.93688]]}},
{"type":"Feature","properties":{"foot":"yes","name":"V4","highway":"footway","layer":"-2","tunnel":"yes"},"geometry":{"type":"LineString","coordinates":[[6.13273,45.9376],[6.13266,45.93759]]}},
{"type":"Feature","properties":{"foot":"yes","name":"V17","highway":"footway","layer":"-2","tunnel":"yes"},"geometry":{"type":"LineString","coordinates":[[6.13237,45.93725],[6.13238,45.93729]]}},
{"type":"Feature","properties":{"foot":"yes","name":"V20","highway":"footway","layer":"-2","tunnel":"yes"},"geometry":{"type":"LineString","coordinates":[[6.13223,45.9371],[6.13217,45.9371]]}},
{"type":"Feature","properties":{"foot":"yes","name":"Dessin GC - R3","highway":"footway","layer":"-2","tunnel":"yes"},"geometry":{"type":"LineString","coordinates":[[6.13229,45.93736],[6.13228,45.9373]]}},
{"type":"Feature","properties":{"foot":"yes","name":"R11","highway":"footway","layer":"-2","tunnel":"yes"},"geometry":{"type":"LineString","coordinates":[[6.13219,45.93682],[6.13219,45.9368]]}},
{"type":"Feature","properties":{"foot":"yes","name":"V1","highway":"footway","layer":"-2","tunnel":"yes"},"geometry":{"type":"LineString","coordinates":[[6.13259,45.93777],[6.13262,45.93777]]}},
{"type":"Feature","properties":{"foot":"yes","name":"2","highway":"footway","layer":"-2","tunnel":"yes"},"geometry":{"type":"LineString","coordinates":[[6.13211,45.9373],[6.13216,45.93733]]}},
{"type":"Feature","properties":{"foot":"yes","name":"R8","highway":"footway","layer":"-2","tunnel":"yes"},"geometry":{"type":"LineString","coordinates":[[6.13211,45.93678],[6.13213,45.9368]]}},
{"type":"Feature","properties":{"foot":"yes","name":"V2","highway":"footway","layer":"-2","tunnel":"yes"},"geometry":{"type":"LineString","coordinates":[[6.13272,45.9378],[6.13268,45.93775]]}},
{"type":"Feature","properties":{"foot":"yes","name":"R7","highway":"footway","layer":"-2","tunnel":"yes"},"geometry":{"type":"LineString","coordinates":[[6.13207,45.93684],[6.13214,45.93684]]}},
{"type":"Feature","properties":{"foot":"yes","name":"V9","highway":"footway","layer":"-2","tunnel":"yes"},"geometry":{"type":"LineString","coordinates":[[6.13272,45.93747],[6.13264,45.93748]]}},
{"type":"Feature","properties":{"foot":"yes","name":"V21","highway":"footway","layer":"-2","tunnel":"yes"},"geometry":{"type":"LineString","coordinates":[[6.13219,45.93702],[6.1322,45.93704]]}},
{"type":"Feature","properties":{"foot":"yes","name":"V5","highway":"footway","layer":"-2","tunnel":"yes"},"geometry":{"type":"LineString","coordinates":[[6.1328,45.93758],[6.13279,45.93753]]}},
{"type":"Feature","properties":{"foot":"yes","name":"GC Profs","highway":"footway","layer":"-2","tunnel":"yes"},"geometry":{"type":"LineString","coordinates":[[6.13247,45.93733],[6.1325,45.93731]]}},
{"type":"Feature","properties":{"foot":"yes","name":"R9","highway":"footway","layer":"-2","tunnel":"yes"},"geometry":{"type":"LineString","coordinates":[[6.13224,45.93676],[6.13225,45.93679]]}},
{"type":"Feature","properties":{"foot":"yes","name":"V18","highway":"footway","layer":"-2","tunnel":"yes"},"geometry":{"type":"LineString","coordinates":[[6.13223,45.9372],[6.13221,45.93717]]}},
{"type":"Feature","properties":{"foot":"yes","name":"V15","highway":"footway","layer":"-2","tunnel":"yes"},"geometry":{"type":"LineString","coordinates":[[6.13259,45.93725],[6.13259,45.93728]]}},
{"type":"Feature","properties":{"foot":"yes","name":"V8","highway":"footway","layer":"-2","tunnel":"yes"},"geometry":{"type":"LineString","coordinates":[[6.13279,45.9375],[6.13279,45.93753]]}},
{"type":"Feature","properties":{"foot":"yes","name":"R5","highway":"footway","layer":"-2","tunnel":"yes"},"geometry":{"type":"LineString","coordinates":[[6.13209,45.93703],[6.13216,45.93702]]}},
{"type":"Feature","properties":{"foot":"yes","name":"V6","highway":"footway","layer":"-2","tunnel":"yes"},"geometry":{"type":"LineString","coordinates":[[6.13288,45.93756],[6.13286,45.93756]]}},
{"type":"Feature","properties":{"foot":"yes","name":"R4","highway":"footway","layer":"-2","tunnel":"yes"},"geometry":{"type":"LineString","coordinates":[[6.1321,45.93716],[6.13218,45.93715]]}},
{"type":"Feature","properties":{"foot":"yes","name":"Coordinateur secteurs","highway":"footway","layer":"-2","tunnel":"yes"},"geometry":{"type":"LineString","coordinates":[[6.13219,45.93738],[6.13217,45.93736]]}},
{"type":"Feature","properties":{"foot":"yes","name":"V16","highway":"footway","layer":"-2","tunnel":"yes"},"geometry":{"type":"LineString","coordinates":[[6.13245,45.93726],[6.13246,45.93729]]}},
{"type":"Feature","properties":{"foot":"yes","name":"V14","highway":"footway","layer":"-2","tunnel":"yes"},"geometry":{"type":"LineString","coordinates":[[6.13262,45.93723],[6.13266,45.93726]]}},
{"type":"Feature","properties":{"foot":"yes","name":"V13","highway":"footway","layer":"-2","tunnel":"yes"},"geometry":{"type":"LineString","coordinates":[[6.13272,45.93727],[6.13266,45.93726]]}}
]}