{"type":"FeatureCollection","generator":"JOSM",
"features":[
{"type":"Feature","properties":{"bridge":"yes","name":"E105","highway":"footway","foot":"yes","layer":"-1"},"geometry":{"type":"LineString","coordinates":[[6.13148,45.93734],[6.13148,45.93738]]}},
{"type":"Feature","properties":{"bridge":"yes","name":"E108","highway":"footway","foot":"yes","layer":"-1"},"geometry":{"type":"LineString","coordinates":[[6.13144,45.93741],[6.13148,45.9374]]}},
{"type":"Feature","properties":{"bridge":"yes","name":"M105","highway":"footway","foot":"yes","layer":"-1"},"geometry":{"type":"LineString","coordinates":[[6.13173,45.93679],[6.13174,45.93681]]}},
{"type":"Feature","properties":{"bridge":"yes","name":"M101","highway":"footway","foot":"yes","layer":"-1"},"geometry":{"type":"LineString","coordinates":[[6.13179,45.93695],[6.13175,45.93695]]}},
{"type":"Feature","properties":{"bridge":"yes","name":"E109 Prof","highway":"footway","foot":"yes","layer":"-1"},"geometry":{"type":"LineString","coordinates":[[6.13123,45.93737],[6.13121,45.93737]]}},
{"type":"Feature","properties":{"bridge":"yes","name":"M109","highway":"footway","foot":"yes","layer":"-1"},"geometry":{"type":"LineString","coordinates":[[6.13168,45.93699],[6.13164,45.93699]]}},
{"type":"Feature","properties":{"bridge":"yes","name":"E104","highway":"footway","foot":"yes","layer":"-1"},"geometry":{"type":"LineString","coordinates":[[6.13171,45.93743],[6.1317,45.93738]]}},
{"type":"Feature","properties":{"bridge":"yes","name":"M106","highway":"footway","foot":"yes","layer":"-1"},"geometry":{"type":"LineString","coordinates":[[6.13171,45.93721],[6.13167,45.93721]]}},
{"type":"Feature","properties":{"bridge":"yes","name":"E103","highway":"footway","foot":"yes","layer":"-1"},"geometry":{"type":"LineString","coordinates":[[6.13161,45.93736],[6.13161,45.93739]]}},
{"type":"Feature","properties":{"bridge":"yes","foot":"yes","highway":"footway","layer":"-1","name":"M108.1"},"geometry":{"type":"LineString","coordinates":[[6.13177,45.93699],[6.13177,45.93701]]}},
{"type":"Feature","properties":{"bridge":"yes","name":"M102","highway":"footway","foot":"yes","layer":"-1"},"geometry":{"type":"LineString","coordinates":[[6.13178,45.93687],[6.13174,45.93688]]}},
{"type":"Feature","properties":{"bridge":"yes","name":"E102","highway":"footway","foot":"yes","layer":"-1"},"geometry":{"type":"LineString","coordinates":[[6.13182,45.93739],[6.13176,45.93739],[6.13175,45.93739]]}},
{"type":"Feature","properties":{"bridge":"yes","name":"M106.1","highway":"footway","foot":"yes","layer":"-1"},"geometry":{"type":"LineString","coordinates":[[6.13172,45.93724],[6.13171,45.93721]]}},
{"type":"Feature","properties":{"bridge":"yes","name":"E107","highway":"footway","foot":"yes","layer":"-1"},"geometry":{"type":"LineString","coordinates":[[6.13141,45.93737],[6.13148,45.93738]]}},
{"type":"Feature","properties":{"bridge":"yes","name":"E101","highway":"footway","foot":"yes","layer":"-1"},"geometry":{"type":"LineString","coordinates":[[6.13177,45.93735],[6.13176,45.93739]]}},
{"type":"Feature","properties":{"bridge":"yes","name":"M110","highway":"footway","foot":"yes","layer":"-1"},"geometry":{"type":"LineString","coordinates":[[6.13168,45.93726],[6.13168,45.93724]]}},
{"type":"Feature","properties":{"bridge":"yes","name":"M104 Prof","highway":"footway","foot":"yes","layer":"-1"},"geometry":{"type":"LineString","coordinates":[[6.13164,45.93686],[6.13164,45.93684]]}},
{"type":"Feature","properties":{"bridge":"yes","name":"M108","highway":"footway","foot":"yes","layer":"-1"},"geometry":{"type":"LineString","coordinates":[[6.13171,45.93704],[6.13165,45.93705]]}},
{"type":"Feature","properties":{"bridge":"yes","name":"M103","highway":"footway","foot":"yes","layer":"-1"},"geometry":{"type":"LineString","coordinates":[[6.1317,45.93695],[6.13175,45.93695]]}},
{"type":"Feature","properties":{"bridge":"yes","name":"E106","highway":"footway","foot":"yes","layer":"-1"},"geometry":{"type":"LineString","coordinates":[[6.13153,45.93743],[6.13153,45.9374]]}},

{"type":"Feature","properties":{"name":"E9","highway":"footway","foot":"yes","layer":"-2","tunnel":"yes"},"geometry":{"type":"LineString","coordinates":[[6.13137,45.93735],[6.13136,45.93733]]}},
{"type":"Feature","properties":{"name":"M16 Prof","highway":"footway","foot":"yes","layer":"-2","tunnel":"yes"},"geometry":{"type":"LineString","coordinates":[[6.13144,45.93668],[6.13144,45.93669],[6.13144,45.93672]]}},
{"type":"Feature","properties":{"name":"E4","highway":"footway","foot":"yes","layer":"-2","tunnel":"yes"},"geometry":{"type":"LineString","coordinates":[[6.13172,45.93744],[6.13172,45.9374]]}},
{"type":"Feature","properties":{"name":"E17","highway":"footway","foot":"yes","layer":"-2","tunnel":"yes"},"geometry":{"type":"LineString","coordinates":[[6.13105,45.93731],[6.13118,45.9373]]}},
{"type":"Feature","properties":{"name":"M8","highway":"footway","foot":"yes","layer":"-2","tunnel":"yes"},"geometry":{"type":"LineString","coordinates":[[6.13103,45.93704],[6.1311,45.93704]]}},
{"type":"Feature","properties":{"name":"M2","highway":"footway","foot":"yes","layer":"-2","tunnel":"yes"},"geometry":{"type":"LineString","coordinates":[[6.13158,45.93706],[6.1316,45.93701]]}},
{"type":"Feature","properties":{"name":"E2","highway":"footway","foot":"yes","layer":"-2","tunnel":"yes"},"geometry":{"type":"LineString","coordinates":[[6.13178,45.93738],[6.1318,45.93735]]}},
{"type":"Feature","properties":{"name":"E11","highway":"footway","foot":"yes","layer":"-2","tunnel":"yes"},"geometry":{"type":"LineString","coordinates":[[6.13125,45.93739],[6.13119,45.9374]]}},
{"type":"Feature","properties":{"name":"M6","highway":"footway","foot":"yes","layer":"-2","tunnel":"yes"},"geometry":{"type":"LineString","coordinates":[[6.13126,45.93699],[6.13126,45.93701]]}},
{"type":"Feature","properties":{"name":"M12","highway":"footway","foot":"yes","layer":"-2","tunnel":"yes"},"geometry":{"type":"LineString","coordinates":[[6.13158,45.93669],[6.13159,45.93673]]}},
{"type":"Feature","properties":{"name":"M2.2","highway":"footway","foot":"yes","layer":"-2","tunnel":"yes"},"geometry":{"type":"LineString","coordinates":[[6.13164,45.93717],[6.13163,45.93712]]}},
{"type":"Feature","properties":{"name":"E3","highway":"footway","foot":"yes","layer":"-2","tunnel":"yes"},"geometry":{"type":"LineString","coordinates":[[6.1316,45.93733],[6.13165,45.93731]]}},
{"type":"Feature","properties":{"name":"M13","highway":"footway","foot":"yes","layer":"-2","tunnel":"yes"},"geometry":{"type":"LineString","coordinates":[[6.1315,45.9367],[6.1315,45.93674]]}},
{"type":"Feature","properties":{"name":"M2.5","highway":"footway","foot":"yes","layer":"-2","tunnel":"yes"},"geometry":{"type":"LineString","coordinates":[[6.13143,45.93708],[6.13143,45.93705]]}},
{"type":"Feature","properties":{"name":"M17","highway":"footway","foot":"yes","layer":"-2","tunnel":"yes"},"geometry":{"type":"LineString","coordinates":[[6.13177,45.93692],[6.13172,45.93691]]}},
{"type":"Feature","properties":{"name":"M14","highway":"footway","foot":"yes","layer":"-2","tunnel":"yes"},"geometry":{"type":"LineString","coordinates":[[6.13138,45.93673],[6.13144,45.93673]]}},
{"type":"Feature","properties":{"name":"M1.4","highway":"footway","foot":"yes","layer":"-2","tunnel":"yes"},"geometry":{"type":"LineString","coordinates":[[6.13113,45.93712],[6.13113,45.93704]]}},
{"type":"Feature","properties":{"name":"M2.1 Prof","highway":"footway","foot":"yes","layer":"-2","tunnel":"yes"},"geometry":{"type":"LineString","coordinates":[[6.13176,45.93723],[6.1317,45.93723]]}},
{"type":"Feature","properties":{"name":"M1.3","highway":"footway","foot":"yes","layer":"-2","tunnel":"yes"},"geometry":{"type":"LineString","coordinates":[[6.13116,45.93724],[6.13117,45.93729]]}},
{"type":"Feature","properties":{"name":"Entretien","highway":"footway","foot":"yes","layer":"-2","tunnel":"yes"},"geometry":{"type":"LineString","coordinates":[[6.1314,45.93732],[6.13136,45.93732]]}},
{"type":"Feature","properties":{"name":"12","highway":"footway","foot":"yes","layer":"-2","tunnel":"yes"},"geometry":{"type":"LineString","coordinates":[[6.13119,45.93749],[6.13117,45.93747]]}},
{"type":"Feature","properties":{"name":"M9","highway":"footway","foot":"yes","layer":"-2","tunnel":"yes"},"geometry":{"type":"LineString","coordinates":[[6.13156,45.93686],[6.13146,45.93687]]}},
{"type":"Feature","properties":{"name":"E1","highway":"footway","foot":"yes","layer":"-2","tunnel":"yes"},"geometry":{"type":"LineString","coordinates":[[6.13178,45.93738],[6.1318,45.93735]]}},
{"type":"Feature","properties":{"name":"E10 Entretien atelier","highway":"footway","foot":"yes","layer":"-2","tunnel":"yes"},"geometry":{"type":"LineString","coordinates":[[6.13126,45.93734],[6.13125,45.93729]]}},
{"type":"Feature","properties":{"name":"M11 Prof","highway":"footway","foot":"yes","layer":"-2","tunnel":"yes"},"geometry":{"type":"LineString","coordinates":[[6.13167,45.93669],[6.13167,45.93673]]}},
{"type":"Feature","properties":{"name":"E16","highway":"footway","foot":"yes","layer":"-2","tunnel":"yes"},"geometry":{"type":"LineString","coordinates":[[6.1309,45.93752],[6.13086,45.93752]]}},
{"type":"Feature","properties":{"name":"M4","highway":"footway","foot":"yes","layer":"-2","tunnel":"yes"},"geometry":{"type":"LineString","coordinates":[[6.13173,45.93703],[6.13168,45.93704]]}},
{"type":"Feature","properties":{"name":"Magasin","highway":"footway","foot":"yes","layer":"-2","tunnel":"yes"},"geometry":{"type":"LineString","coordinates":[[6.13131,45.93732],[6.13136,45.93732]]}},
{"type":"Feature","properties":{"name":"13","highway":"footway","foot":"yes","layer":"-2","tunnel":"yes"},"geometry":{"type":"LineString","coordinates":[[6.13109,45.9374],[6.13104,45.9374]]}},
{"type":"Feature","properties":{"name":"E6","highway":"footway","foot":"yes","layer":"-2","tunnel":"yes"},"geometry":{"type":"LineString","coordinates":[[6.13148,45.93732],[6.13148,45.93727]]}},
{"type":"Feature","properties":{"name":"M16","highway":"footway","foot":"yes","layer":"-2","tunnel":"yes"},"geometry":{"type":"LineString","coordinates":[[6.13136,45.9367],[6.13144,45.93669]]}},
{"type":"Feature","properties":{"name":"E14","highway":"footway","foot":"yes","layer":"-2","tunnel":"yes"},"geometry":{"type":"LineString","coordinates":[[6.13102,45.93736],[6.13103,45.93736],[6.13107,45.93736]]}},
{"type":"Feature","properties":{"name":"M7","highway":"footway","foot":"yes","layer":"-2","tunnel":"yes"},"geometry":{"type":"LineString","coordinates":[[6.13117,45.93696],[6.13118,45.93704]]}},
{"type":"Feature","properties":{"name":"M20","highway":"footway","foot":"yes","layer":"-2","tunnel":"yes"},"geometry":{"type":"LineString","coordinates":[[6.13164,45.93677],[6.13164,45.93673]]}},
{"type":"Feature","properties":{"name":"E5","highway":"footway","foot":"yes","layer":"-2","tunnel":"yes"},"geometry":{"type":"LineString","coordinates":[[6.13166,45.9374],[6.13172,45.93739]]}},
{"type":"Feature","properties":{"name":"M5 Prof","highway":"footway","foot":"yes","layer":"-2","tunnel":"yes"},"geometry":{"type":"LineString","coordinates":[[6.13131,45.93697],[6.13131,45.93699]]}},
{"type":"Feature","properties":{"name":"M2.4","highway":"footway","foot":"yes","layer":"-2","tunnel":"yes"},"geometry":{"type":"LineString","coordinates":[[6.1315,45.93716],[6.1315,45.93714]]}},
{"type":"Feature","properties":{"name":"E7","highway":"footway","foot":"yes","layer":"-2","tunnel":"yes"},"geometry":{"type":"LineString","coordinates":[[6.13145,45.93732],[6.13145,45.93728]]}},
{"type":"Feature","properties":{"name":"M18","highway":"footway","foot":"yes","layer":"-2","tunnel":"yes"},"geometry":{"type":"LineString","coordinates":[[6.13175,45.93673],[6.1317,45.93673]]}},
{"type":"Feature","properties":{"name":"M1","highway":"footway","foot":"yes","layer":"-2","tunnel":"yes"},"geometry":{"type":"LineString","coordinates":[[6.13132,45.93716],[6.13125,45.93716]]}},
{"type":"Feature","properties":{"name":"E15","highway":"footway","foot":"yes","layer":"-2","tunnel":"yes"},"geometry":{"type":"LineString","coordinates":[[6.131,45.93756],[6.131,45.93752]]}},
{"type":"Feature","properties":{"name":"M2.3","highway":"footway","foot":"yes","layer":"-2","tunnel":"yes"},"geometry":{"type":"LineString","coordinates":[[6.13156,45.93717],[6.13156,45.93713]]}},
{"type":"Feature","properties":{"name":"M19","highway":"footway","foot":"yes","layer":"-2","tunnel":"yes"},"geometry":{"type":"LineString","coordinates":[[6.13172,45.93691],[6.13159,45.93689]]}},
{"type":"Feature","properties":{"name":"M3","highway":"footway","foot":"yes","layer":"-2","tunnel":"yes"},"geometry":{"type":"LineString","coordinates":[[6.13175,45.93719],[6.1317,45.93719]]}},
]
}
