{"type":"FeatureCollection","generator":"JOSM","features":[
{"type":"Feature","properties":{"highway":"footway","foot":"yes","name":"105"},"geometry":{"type":"LineString","coordinates":[[6.13263,45.93731],[6.13268,45.9373]]}},
{"type":"Feature","properties":{"name":"8","foot":"yes","highway":"footway"},"geometry":{"type":"LineString","coordinates":[[6.13217,45.93707],[6.13212,45.93707]]}},
{"type":"Feature","properties":{"name":"10","foot":"yes","highway":"footway"},"geometry":{"type":"LineString","coordinates":[[6.1321,45.93685],[6.13215,45.93685]]}},
{"type":"Feature","properties":{"name":"RÃ©union","foot":"yes","highway":"footway"},"geometry":{"type":"LineString","coordinates":[[6.13273,45.93773],[6.13269,45.93776]]}},
{"type":"Feature","properties":{"name":"1","foot":"yes","highway":"footway"},"geometry":{"type":"LineString","coordinates":[[6.13276,45.93756],[6.13276,45.93759]]}},
{"type":"Feature","properties":{"highway":"footway","foot":"yes","name":"Germain somelier"},"geometry":{"type":"LineString","coordinates":[[6.13324,45.9375],[6.13318,45.93746]]}},
{"type":"Feature","properties":{"highway":"footway","foot":"yes","name":"102"},"geometry":{"type":"LineString","coordinates":[[6.13267,45.93767],[6.13262,45.93767]]}},
{"type":"Feature","properties":{"highway":"footway","foot":"yes","name":"112"},"geometry":{"type":"LineString","coordinates":[[6.13243,45.9373],[6.13243,45.93733]]}},
{"type":"Feature","properties":{"name":"6","foot":"yes","highway":"footway"},"geometry":{"type":"LineString","coordinates":[[6.13232,45.9373],[6.13232,45.93733]]}},
{"type":"Feature","properties":{"highway":"footway","foot":"yes","name":"111"},"geometry":{"type":"LineString","coordinates":[[6.13217,45.93711],[6.13221,45.93711]]}},
{"type":"Feature","properties":{"name":"11","foot":"yes","highway":"footway"},"geometry":{"type":"LineString","coordinates":[[6.13214,45.93677],[6.13215,45.9368]]}},
{"type":"Feature","properties":{"name":"14","foot":"yes","highway":"footway"},"geometry":{"type":"LineString","coordinates":[[6.13229,45.93681],[6.13228,45.93679]]}},
{"type":"Feature","properties":{"highway":"footway","foot":"yes","name":"120"},"geometry":{"type":"LineString","coordinates":[[6.13216,45.93697],[6.13211,45.93698]]}},
{"type":"Feature","properties":{"highway":"footway","foot":"yes","name":"122"},"geometry":{"type":"LineString","coordinates":[[6.13215,45.93681],[6.1321,45.93681]]}},
{"type":"Feature","properties":{"name":"CDI","foot":"yes","highway":"footway"},"geometry":{"type":"LineString","coordinates":[[6.13266,45.93761],[6.13261,45.93761]]}},
{"type":"Feature","properties":{"highway":"footway","foot":"yes","name":"1"},"geometry":{"type":"LineString","coordinates":[[6.13271,45.93771],[6.13268,45.93775]]}},
{"type":"Feature","properties":{"name":"Proviseur","foot":"yes","highway":"footway"},"geometry":{"type":"LineString","coordinates":[[6.13285,45.9375],[6.13285,45.93747]]}},
{"type":"Feature","properties":{"highway":"footway","foot":"yes","name":"124"},"geometry":{"type":"LineString","coordinates":[[6.13224,45.93678],[6.13224,45.93679]]}},
{"type":"Feature","properties":{"highway":"footway","foot":"yes","name":"110"},"geometry":{"type":"LineString","coordinates":[[6.13264,45.93741],[6.13257,45.93742]]}},
{"type":"Feature","properties":{"highway":"footway","foot":"yes","name":"107"},"geometry":{"type":"LineString","coordinates":[[6.13257,45.93729],[6.13257,45.93725]]}},
{"type":"Feature","properties":{"name":"0","foot":"yes","highway":"footway"},"geometry":{"type":"LineString","coordinates":[[6.13218,45.93707],[6.13223,45.93707]]}},
{"type":"Feature","properties":{"highway":"footway","foot":"yes","name":"114"},"geometry":{"type":"LineString","coordinates":[[6.13235,45.9373],[6.13235,45.93733]]}},
{"type":"Feature","properties":{"highway":"footway","foot":"yes","name":"Video lecture"},"geometry":{"type":"LineString","coordinates":[[6.13274,45.93753],[6.13273,45.9375]]}},
{"type":"Feature","properties":{"name":"12","foot":"yes","highway":"footway"},"geometry":{"type":"LineString","coordinates":[[6.13225,45.93677],[6.13225,45.93679]]}},
{"type":"Feature","properties":{"name":"Acceuil","foot":"yes","highway":"footway"},"geometry":{"type":"LineString","coordinates":[[6.13284,45.93754],[6.13287,45.93756]]}},
{"type":"Feature","properties":{"highway":"footway","foot":"yes","name":"117"},"geometry":{"type":"LineString","coordinates":[[6.13242,45.93678],[6.13242,45.9368]]}},
{"type":"Feature","properties":{"highway":"footway","foot":"yes","name":"104"},"geometry":{"type":"LineString","coordinates":[[6.13266,45.9376],[6.13261,45.9376]]}},
{"type":"Feature","properties":{"name":"7","foot":"yes","highway":"footway"},"geometry":{"type":"LineString","coordinates":[[6.13219,45.93717],[6.13214,45.93718]]}},
{"type":"Feature","properties":{"highway":"footway","foot":"yes","name":"118"},"geometry":{"type":"LineString","coordinates":[[6.13217,45.93708],[6.13211,45.93708]]}},
{"type":"Feature","properties":{"name":"7.8","foot":"yes","highway":"footway"},"geometry":{"type":"LineString","coordinates":[[6.13218,45.93714],[6.13213,45.93714]]}},
{"type":"Feature","properties":{"name":"13","foot":"yes","highway":"footway"},"geometry":{"type":"LineString","coordinates":[[6.13242,45.9368],[6.13242,45.93678]]}},
{"type":"Feature","properties":{"highway":"footway","foot":"yes","name":"Labo"},"geometry":{"type":"LineString","coordinates":[[6.13215,45.93687],[6.1321,45.93687]]}},
{"type":"Feature","properties":{"name":"2","foot":"yes","highway":"footway"},"geometry":{"type":"LineString","coordinates":[[6.13266,45.9376],[6.13272,45.93761]]}},
{"type":"Feature","properties":{"name":"Intendance","foot":"yes","highway":"footway"},"geometry":{"type":"LineString","coordinates":[[6.13264,45.9374],[6.1327,45.9374]]}},
{"type":"Feature","properties":{"highway":"footway","foot":"yes","name":"Audio visuel"},"geometry":{"type":"LineString","coordinates":[[6.13275,45.93753],[6.13275,45.93756]]}},
{"type":"Feature","properties":{"highway":"footway","foot":"yes","name":"101"},"geometry":{"type":"LineString","coordinates":[[6.13267,45.93766],[6.13273,45.93766]]}},
{"type":"Feature","properties":{"highway":"footway","foot":"yes","name":"103"},"geometry":{"type":"LineString","coordinates":[[6.13263,45.93739],[6.13269,45.93738]]}},
{"type":"Feature","properties":{"highway":"footway","foot":"yes","name":"108"},"geometry":{"type":"LineString","coordinates":[[6.13265,45.9375],[6.13259,45.93751]]}},
{"type":"Feature","properties":{"highway":"footway","foot":"yes","name":"109"},"geometry":{"type":"LineString","coordinates":[[6.1324,45.9373],[6.13239,45.93727]]}},
{"type":"Feature","properties":{"name":"Vie scolaire","foot":"yes","highway":"footway"},"geometry":{"type":"LineString","coordinates":[[6.13237,45.9373],[6.13237,45.93732]]}},
{"type":"Feature","properties":{"name":"9","foot":"yes","highway":"footway"},"geometry":{"type":"LineString","coordinates":[[6.13215,45.93687],[6.13209,45.93688]]}},
{"type":"Feature","properties":{"highway":"footway","foot":"yes","name":"116"},"geometry":{"type":"LineString","coordinates":[[6.13218,45.93718],[6.13214,45.93718]]}},
{"type":"Feature","properties":{"highway":"footway","foot":"yes","name":"113"},"geometry":{"type":"LineString","coordinates":[[6.13216,45.93702],[6.13221,45.93701]]}},
{"type":"Feature","properties":{"highway":"footway","foot":"yes","name":"106"},"geometry":{"type":"LineString","coordinates":[[6.13266,45.93757],[6.13262,45.93757]]}},
{"type":"Feature","properties":{"highway":"footway","foot":"yes","name":"115"},"geometry":{"type":"LineString","coordinates":[[6.1322,45.93681],[6.1322,45.9368]]}}
]}